{
  "type": "FeatureCollection",
  "features": [
    {
      "type": "Feature",
      "properties": {
        "norad_id": 43633,
        "name": "HORIZONS-3E",
        "group": "intelsat",
        "lat": NaN,
        "lon": NaN,
        "alt_km": NaN,
        "timestamp": "2025-12-01T03:08:33.653114+00:00",
        "meta": {
          "OBJECT_NAME": "HORIZONS-3E",
          "OBJECT_ID": "2018-074B",
          "EPOCH": "2025-11-30T18:04:19.757280",
          "MEAN_MOTION": 1.00270895,
          "ECCENTRICITY": 8.31e-05,
          "INCLINATION": 0.0277,
          "RA_OF_ASC_NODE": 210.7552,
          "ARG_OF_PERICENTER": 73.8363,
          "MEAN_ANOMALY": 225.4061,
          "EPHEMERIS_TYPE": 0,
          "CLASSIFICATION_TYPE": "U",
          "NORAD_CAT_ID": 43633,
          "ELEMENT_SET_NO": 999,
          "REV_AT_EPOCH": 2635,
          "BSTAR": 0,
          "MEAN_MOTION_DOT": -8e-08,
          "MEAN_MOTION_DDOT": 0
        }
      },
      "geometry": {
        "type": "Point",
        "coordinates": [
          NaN,
          NaN
        ]
      }
    },
    {
      "type": "Feature",
      "properties": {
        "norad_id": 44333,
        "name": "AT&T T-16",
        "group": "intelsat",
        "lat": NaN,
        "lon": NaN,
        "alt_km": NaN,
        "timestamp": "2025-12-01T03:08:33.653525+00:00",
        "meta": {
          "OBJECT_NAME": "AT&T T-16",
          "OBJECT_ID": "2019-034A",
          "EPOCH": "2025-11-30T15:04:29.953344",
          "MEAN_MOTION": 1.00273033,
          "ECCENTRICITY": 7.15e-05,
          "INCLINATION": 0.0317,
          "RA_OF_ASC_NODE": 81.1111,
          "ARG_OF_PERICENTER": 75.5357,
          "MEAN_ANOMALY": 38.3889,
          "EPHEMERIS_TYPE": 0,
          "CLASSIFICATION_TYPE": "U",
          "NORAD_CAT_ID": 44333,
          "ELEMENT_SET_NO": 999,
          "REV_AT_EPOCH": 2364,
          "BSTAR": 0,
          "MEAN_MOTION_DOT": -9.4e-07,
          "MEAN_MOTION_DDOT": 0
        }
      },
      "geometry": {
        "type": "Point",
        "coordinates": [
          NaN,
          NaN
        ]
      }
    },
    {
      "type": "Feature",
      "properties": {
        "norad_id": 44476,
        "name": "INTELSAT 39 (IS-39)",
        "group": "intelsat",
        "lat": NaN,
        "lon": NaN,
        "alt_km": NaN,
        "timestamp": "2025-12-01T03:08:33.653952+00:00",
        "meta": {
          "OBJECT_NAME": "INTELSAT 39 (IS-39)",
          "OBJECT_ID": "2019-049B",
          "EPOCH": "2025-11-30T19:16:31.791936",
          "MEAN_MOTION": 1.00270438,
          "ECCENTRICITY": 9.24e-05,
          "INCLINATION": 0.0162,
          "RA_OF_ASC_NODE": 302.2488,
          "ARG_OF_PERICENTER": 204.8802,
          "MEAN_ANOMALY": 273.8892,
          "EPHEMERIS_TYPE": 0,
          "CLASSIFICATION_TYPE": "U",
          "NORAD_CAT_ID": 44476,
          "ELEMENT_SET_NO": 999,
          "REV_AT_EPOCH": 2313,
          "BSTAR": 0,
          "MEAN_MOTION_DOT": 5.5e-07,
          "MEAN_MOTION_DDOT": 0
        }
      },
      "geometry": {
        "type": "Point",
        "coordinates": [
          NaN,
          NaN
        ]
      }
    },
    {
      "type": "Feature",
      "properties": {
        "norad_id": 54026,
        "name": "GALAXY 33 (G-33)",
        "group": "intelsat",
        "lat": NaN,
        "lon": NaN,
        "alt_km": NaN,
        "timestamp": "2025-12-01T03:08:33.654650+00:00",
        "meta": {
          "OBJECT_NAME": "GALAXY 33 (G-33)",
          "OBJECT_ID": "2022-128A",
          "EPOCH": "2025-11-30T16:38:05.516160",
          "MEAN_MOTION": 1.00271956,
          "ECCENTRICITY": 0.0001849,
          "INCLINATION": 0.0133,
          "RA_OF_ASC_NODE": 330.1836,
          "ARG_OF_PERICENTER": 273.2072,
          "MEAN_ANOMALY": 302.9591,
          "EPHEMERIS_TYPE": 0,
          "CLASSIFICATION_TYPE": "U",
          "NORAD_CAT_ID": 54026,
          "ELEMENT_SET_NO": 999,
          "REV_AT_EPOCH": 1175,
          "BSTAR": 0,
          "MEAN_MOTION_DOT": 1e-06,
          "MEAN_MOTION_DDOT": 0
        }
      },
      "geometry": {
        "type": "Point",
        "coordinates": [
          NaN,
          NaN
        ]
      }
    },
    {
      "type": "Feature",
      "properties": {
        "norad_id": 54027,
        "name": "GALAXY 34 (G-34)",
        "group": "intelsat",
        "lat": NaN,
        "lon": NaN,
        "alt_km": NaN,
        "timestamp": "2025-12-01T03:08:33.655082+00:00",
        "meta": {
          "OBJECT_NAME": "GALAXY 34 (G-34)",
          "OBJECT_ID": "2022-128B",
          "EPOCH": "2025-11-30T16:39:12.908160",
          "MEAN_MOTION": 1.00266938,
          "ECCENTRICITY": 0.0001436,
          "INCLINATION": 0.0172,
          "RA_OF_ASC_NODE": 308.9346,
          "ARG_OF_PERICENTER": 283.4057,
          "MEAN_ANOMALY": 318.2787,
          "EPHEMERIS_TYPE": 0,
          "CLASSIFICATION_TYPE": "U",
          "NORAD_CAT_ID": 54027,
          "ELEMENT_SET_NO": 999,
          "REV_AT_EPOCH": 1192,
          "BSTAR": 0,
          "MEAN_MOTION_DOT": 8.1e-07,
          "MEAN_MOTION_DDOT": 0
        }
      },
      "geometry": {
        "type": "Point",
        "coordinates": [
          NaN,
          NaN
        ]
      }
    },
    {
      "type": "Feature",
      "properties": {
        "norad_id": 54243,
        "name": "GALAXY 31 (G-31)",
        "group": "intelsat",
        "lat": NaN,
        "lon": NaN,
        "alt_km": NaN,
        "timestamp": "2025-12-01T03:08:33.655540+00:00",
        "meta": {
          "OBJECT_NAME": "GALAXY 31 (G-31)",
          "OBJECT_ID": "2022-153A",
          "EPOCH": "2025-11-30T16:41:35.181312",
          "MEAN_MOTION": 1.00270788,
          "ECCENTRICITY": 0.0001986,
          "INCLINATION": 0.0144,
          "RA_OF_ASC_NODE": 299.7044,
          "ARG_OF_PERICENTER": 324.5164,
          "MEAN_ANOMALY": 294.977,
          "EPHEMERIS_TYPE": 0,
          "CLASSIFICATION_TYPE": "U",
          "NORAD_CAT_ID": 54243,
          "ELEMENT_SET_NO": 999,
          "REV_AT_EPOCH": 514,
          "BSTAR": 0,
          "MEAN_MOTION_DOT": 0,
          "MEAN_MOTION_DDOT": 0
        }
      },
      "geometry": {
        "type": "Point",
        "coordinates": [
          NaN,
          NaN
        ]
      }
    },
    {
      "type": "Feature",
      "properties": {
        "norad_id": 54244,
        "name": "GALAXY 32 (G-32)",
        "group": "intelsat",
        "lat": NaN,
        "lon": NaN,
        "alt_km": NaN,
        "timestamp": "2025-12-01T03:08:33.655975+00:00",
        "meta": {
          "OBJECT_NAME": "GALAXY 32 (G-32)",
          "OBJECT_ID": "2022-153B",
          "EPOCH": "2025-11-30T09:59:12.766272",
          "MEAN_MOTION": 1.00270609,
          "ECCENTRICITY": 0.0002253,
          "INCLINATION": 0.0124,
          "RA_OF_ASC_NODE": 312.3087,
          "ARG_OF_PERICENTER": 352.3365,
          "MEAN_ANOMALY": 183.7198,
          "EPHEMERIS_TYPE": 0,
          "CLASSIFICATION_TYPE": "U",
          "NORAD_CAT_ID": 54244,
          "ELEMENT_SET_NO": 999,
          "REV_AT_EPOCH": 1115,
          "BSTAR": 0,
          "MEAN_MOTION_DOT": -1.53e-06,
          "MEAN_MOTION_DDOT": 0
        }
      },
      "geometry": {
        "type": "Point",
        "coordinates": [
          NaN,
          NaN
        ]
      }
    },
    {
      "type": "Feature",
      "properties": {
        "norad_id": 54741,
        "name": "GALAXY 35 (G-35)",
        "group": "intelsat",
        "lat": NaN,
        "lon": NaN,
        "alt_km": NaN,
        "timestamp": "2025-12-01T03:08:33.656426+00:00",
        "meta": {
          "OBJECT_NAME": "GALAXY 35 (G-35)",
          "OBJECT_ID": "2022-170A",
          "EPOCH": "2025-11-30T15:06:44.738208",
          "MEAN_MOTION": 1.00270709,
          "ECCENTRICITY": 0.0002543,
          "INCLINATION": 0.0154,
          "RA_OF_ASC_NODE": 277.5421,
          "ARG_OF_PERICENTER": 338.0688,
          "MEAN_ANOMALY": 307.7548,
          "EPHEMERIS_TYPE": 0,
          "CLASSIFICATION_TYPE": "U",
          "NORAD_CAT_ID": 54741,
          "ELEMENT_SET_NO": 999,
          "REV_AT_EPOCH": 1090,
          "BSTAR": 0,
          "MEAN_MOTION_DOT": -1.41e-06,
          "MEAN_MOTION_DDOT": 0
        }
      },
      "geometry": {
        "type": "Point",
        "coordinates": [
          NaN,
          NaN
        ]
      }
    }
  ]
}