HORIZONS-3E             
1 43633U 18074B   25334.75300645 -.00000008  00000+0  00000+0 0  9993
2 43633   0.0277 210.7552 0000831  73.8363 225.4061  1.00270895 26359
AT&T T-16               
1 44333U 19034A   25334.62812446 -.00000094  00000+0  00000+0 0  9996
2 44333   0.0317  81.1111 0000715  75.5357  38.3889  1.00273033 23641
INTELSAT 39 (IS-39)     
1 44476U 19049B   25334.80314574  .00000055  00000+0  00000+0 0  9995
2 44476   0.0162 302.2488 0000924 204.8802 273.8892  1.00270438 23135
GALAXY 33 (G-33)        
1 54026U 22128A   25334.69311940  .00000100  00000+0  00000+0 0  9991
2 54026   0.0133 330.1836 0001849 273.2072 302.9591  1.00271956 11759
GALAXY 34 (G-34)        
1 54027U 22128B   25334.69389940  .00000081  00000+0  00000+0 0  9995
2 54027   0.0172 308.9346 0001436 283.4057 318.2787  1.00266938 11920
GALAXY 31 (G-31)        
1 54243U 22153A   25334.69554608  .00000000  00000+0  00000+0 0  9999
2 54243   0.0144 299.7044 0001986 324.5164 294.9770  1.00270788  5144
GALAXY 32 (G-32)        
1 54244U 22153B   25334.41611998 -.00000153  00000+0  00000+0 0  9996
2 54244   0.0124 312.3087 0002253 352.3365 183.7198  1.00270609 11151
GALAXY 35 (G-35)        
1 54741U 22170A   25334.62968447 -.00000141  00000+0  00000+0 0  9991
2 54741   0.0154 277.5421 0002543 338.0688 307.7548  1.00270709 10901
